SL-16 R/B               
1 25400U 98043G   26002.84773875  .00000175  00000+0  92174-4 0  9993
2 25400  98.8152 315.7871 0009412 199.9677 160.1136 14.26031807429603
SL-16 R/B               
1 25407U 98045B   26002.60167031 -.00000021  00000+0  13731-4 0  9990
2 25407  71.0127 320.5540 0005600 141.4372 218.7152 14.16181866417741
ISS (ZARYA)             
1 25544U 98067A   26002.56507419  .00015753  00000+0  29291-3 0  9993
2 25544  51.6329  39.3546 0007530 331.9903  28.0679 15.49039326546088
CZ-4B R/B               
1 25732U 99025C   26002.86536448  .00000154  00000+0  95233-4 0  9993
2 25732  98.6738  48.6697 0037266 172.7916   0.2093 14.18249666378839
OKEAN-O                 
1 25860U 99039A   26002.74570860  .00001490  00000+0  20288-3 0  9994
2 25860  97.9573  63.2629 0001338 113.7819 246.3533 14.80205066424633
SL-16 R/B               
1 25861U 99039B   26002.72065615  .00001255  00000+0  16614-3 0  9997
2 25861  98.0095  61.8703 0016052 109.9361 250.3582 14.81623632427096
DELTA 2 R/B             
1 25876U 99041E   26002.81410001  .00003172  00000+0  54780-3 0  9995
2 25876  51.7591 204.3155 0504166 153.8863 208.8459 14.11481448353726
HELIOS 1B               
1 25977U 99064A   26002.72620828  .00004148  00000+0  46519-3 0  9997
2 25977  98.1755 263.0145 0000412  47.2411 312.8839 14.87385958675453
TERRA                   
1 25994U 99068A   26002.77097957  .00000964  00000+0  20588-3 0  9996
2 25994  97.9719  58.6805 0003094  51.6101  62.3499 14.60930635385450
SL-16 R/B               
1 26070U 00006B   26002.81185846  .00000266  00000+0  15958-3 0  9996
2 26070  71.0016 236.3524 0018833 280.3782  79.5218 14.15814429339231
TITAN 4B R/B            
1 26474U 00047B   26002.82290423  .00006148  00000+0  39021-3 0  9990
2 26474  67.9883 225.6370 0037520 118.9256 241.5665 15.08960095382971
ENVISAT                 
1 27386U 02009A   25365.95019499  .00000264  00000+0  99422-4 0  9995
2 27386  98.3626 316.2065 0001107  88.1807 295.1197 14.39007536249430
